"{\n    \"CCSDS_OMM_VERS\": \"2.0\",\n    \"COMMENT\": \"GENERATED VIA SPACE-TRACK.ORG API\",\n    \"CREATION_DATE\": \"2025-08-31T02:26:50\",\n    \"ORIGINATOR\": \"18 SPCS\",\n    \"OBJECT_NAME\": \"NAVSTAR 57 (USA 183)\",\n    \"OBJECT_ID\": \"2005-038A\",\n    \"CENTER_NAME\": \"EARTH\",\n    \"REF_FRAME\": \"TEME\",\n    \"TIME_SYSTEM\": \"UTC\",\n    \"MEAN_ELEMENT_THEORY\": \"SGP4\",\n    \"EPOCH\": \"2025-08-30T16:22:18.167808\",\n    \"MEAN_MOTION\": \"2.0055524742\",\n    \"ECCENTRICITY\": \"0.013366923\",\n    \"INCLINATION\": \"55.118625\",\n    \"RA_OF_ASC_NODE\": \"284.88965\",\n    \"ARG_OF_PERICENTER\": \"291.02633\",\n    \"MEAN_ANOMALY\": \"68.785944\",\n    \"EPHEMERIS_TYPE\": \"0\",\n    \"CLASSIFICATION_TYPE\": \"U\",\n    \"NORAD_CAT_ID\": \"28874\",\n    \"ELEMENT_SET_NO\": \"999\",\n    \"REV_AT_EPOCH\": \"14601\",\n    \"BSTAR\": \"0\",\n    \"MEAN_MOTION_DOT\": \"-0.000000040292\",\n    \"MEAN_MOTION_DDOT\": \"0\",\n    \"TLE_LINE0\": \"0 NAVSTAR 57 (USA 183)\",\n    \"TLE_LINE1\": \"1 28874U 05038A   25242.68215472 -.00000004  00000-0  00000-0 0  9990\",\n    \"TLE_LINE2\": \"2 28874  55.1186 284.8897 0133669 291.0263  68.7859  2.00555247146019\",\n    \"SEMIMAJOR_AXIS\": \"26561.086\",\n    \"PERIOD\": \"718.007\",\n    \"APOAPSIS\": \"20537.991\",\n    \"PERIAPSIS\": \"19827.911\",\n    \"OBJECT_TYPE\": \"PAYLOAD\",\n    \"DECAYED\": \"0\"\n}"